{"spkid": "50602956", "covariance": {"epoch": "2458465.5", "labels": ["e", "q", "tp", "node", "peri", "i"], "elements": [{"label": "e", "title": "eccentricity", "value": ".2715652309833431", "units": null, "name": "e", "sigma": 2.45265473575549e-08}, {"label": "q", "sigma": 2.98451533597341e-08, "name": "q", "title": "perihelion distance", "value": ".8603229885705309", "units": "au"}, {"label": "tp", "units": "TDB", "title": "time of perihelion passage", "value": "2458295.186105318222", "sigma": 3.57259359686329e-05, "name": "tp"}, {"title": "longitude of the ascending node", "value": "87.11836825160766", "units": "deg", "name": "om", "sigma": 4.07982406595023e-05, "label": "node"}, {"label": "peri", "units": "deg", "title": "argument of perihelion", "value": "32.1013813988526", "name": "w", "sigma": 5.34050327721431e-05}, {"label": "i", "units": "deg", "title": "inclination", "value": "4.693692647082449", "name": "i", "sigma": 3.3646389062716e-06}], "data": [["6.015515252823844E-16", "-7.312178090326951E-16", "-1.80205937090449E-13", "8.54248896801313E-14", "-2.037745280555953E-13", "-4.261495220850926E-15"], ["-7.312178090326951E-16", "8.907331790660451E-16", "2.282539361978284E-13", "-1.064955734934725E-13", "2.562439650155697E-13", "5.942495206025203E-15"], ["-1.80205937090449E-13", "2.282539361978284E-13", "1.276342500834857E-9", "-5.740888009785916E-10", "1.361912143394371E-9", "5.609468435677107E-11"], ["8.54248896801313E-14", "-1.064955734934725E-13", "-5.740888009785916E-10", "1.664496440910668E-9", "-2.013070360154891E-9", "-7.120822625716797E-11"], ["-2.037745280555953E-13", "2.562439650155697E-13", "1.361912143394371E-9", "-2.013070360154891E-9", "2.85209752539368E-9", "1.056032909864384E-10"], ["-4.261495220850926E-15", "5.942495206025203E-15", "5.609468435677107E-11", "-7.120822625716797E-11", "1.056032909864384E-10", "1.132079496959658E-11"]]}, "elements": [{"units": null, "value": ".2716191678277075", "title": "eccentricity", "name": "e", "sigma": "2.4516E-8", "label": "e"}, {"name": "a", "sigma": "2.0632E-9", "value": "1.181190451063458", "title": "semi-major axis", "units": "au", "label": "a"}, {"units": "au", "value": ".8603564836995672", "title": "perihelion distance", "sigma": "2.9768E-8", "name": "q", "label": "q"}, {"label": "i", "value": "4.692283513242045", "title": "inclination; angle with respect to x-y ecliptic plane", "units": "deg", "sigma": "3.3611E-6", "name": "i"}, {"sigma": "4.0837E-5", "name": "om", "value": "87.04957275359374", "title": "longitude of the ascending node", "units": "deg", "label": "node"}, {"sigma": "5.3485E-5", "name": "w", "units": "deg", "value": "32.09977683290028", "title": "argument of perihelion", "label": "peri"}, {"label": "M", "units": "deg", "title": "mean anomaly", "value": "70.84793103149069", "name": "ma", "sigma": "2.911E-5"}, {"units": "TDB", "title": "time of perihelion passage", "value": "2461108.220976682933", "sigma": "3.7843E-5", "name": "tp", "label": "tp"}, {"label": "period", "units": "d", "title": "sidereal orbital period", "value": "468.8979326633875", "sigma": "1.2285E-6", "name": "per"}, {"label": "n", "sigma": "2.0116E-9", "name": "n", "units": "deg/d", "title": "mean motion", "value": ".7677577035905527"}, {"units": "au", "value": "1.502024418427349", "title": "aphelion distance", "sigma": "2.6236E-9", "name": "ad", "label": "Q"}], "epoch": "2461200.5"}